IRIDIUM 119             
1 42959U 17061E   24076.83493697  .00000271  00000+0  89604-4 0  9992
2 42959  86.4027   8.9016 0002118  91.1610 268.9828 14.34217203336947
IRIDIUM 107             
1 42960U 17061F   24076.85396744  .00000214  00000+0  69520-4 0  9993
2 42960  86.4029   8.9099 0002421  89.6037 270.5436 14.34218378336953
IRIDIUM 132             
1 42961U 17061G   24076.86030834  .00000171  00000+0  53954-4 0  9996
2 42961  86.4028   8.8926 0002310  90.4625 269.6836 14.34218025336953
IRIDIUM 136             
1 42962U 17061H   24076.82225155  .00000243  00000+0  79665-4 0  9992
2 42962  86.4028   8.9112 0001953  90.0244 270.1176 14.34218362336966
IRIDIUM 139             
1 42963U 17061J   24076.89836401  .00000159  00000+0  49602-4 0  9996
2 42963  86.4030   8.9281 0002380  88.0187 272.1282 14.34218893336986
IRIDIUM 125             
1 42964U 17061K   24076.88567930  .00000161  00000+0  50292-4 0  9994
2 42964  86.4031   8.9794 0002225  96.3174 263.8275 14.34218748336992
IRIDIUM 135             
1 43070U 17083A   24076.72026870  .00000188  00000+0  60055-4 0  9990
2 43070  86.3946 305.7590 0002349  79.5748 280.5712 14.34218114326262
IRIDIUM 138             
1 43071U 17083B   24076.67587110  .00000070  00000+0  17765-4 0  9994
2 43071  86.3934 305.5063 0002057  94.1376 266.0055 14.34217547326245
